H1 CPF 01  gfz 2022 10 11 12  7842 terrasarx 
H2 0702601  6201 31698    2022 10 11 12 59 42 2022 10 16 00 00 42   120 1 1  0 0 0
H9
10 0 59864  43182.000000  0     838721.182  -2767570.847   6241717.140
10 0 59864  43302.000000  0     759390.730  -3584059.634   5823364.203
10 0 59864  43422.000000  0     653074.949  -4336343.473   5302608.411
10 0 59864  43542.000000  0     522867.286  -5010812.917   4688569.780
10 0 59864  43662.000000  0     372506.497  -5595267.464   3992018.153
10 0 59864  43782.000000  0     206285.365  -6079146.844   3225188.419
10 0 59864  43902.000000  0      28945.181  -6453732.466   2401566.578
10 0 59864  44022.000000  0    -154441.708  -6712313.785   1535650.431
10 0 59864  44142.000000  0    -338598.151  -6850317.468    642691.238
10 0 59864  44262.000000  0    -518174.795  -6865395.633   -261583.304
10 0 59864  44382.000000  0    -687885.015  -6757466.652  -1161256.280
10 0 59864  44502.000000  0    -842638.068  -6528709.505  -2040510.583
10 0 59864  44622.000000  0    -977667.681  -6183513.921  -2883913.718
10 0 59864  44742.000000  0   -1088653.278  -5728387.454  -3676694.040
10 0 59864  44862.000000  0   -1171830.505  -5171820.938  -4405002.017
10 0 59864  44982.000000  0   -1224088.053  -4524116.807  -5056149.875
10 0 59864  45102.000000  0   -1243049.171  -3797186.925  -5618826.255
10 0 59864  45222.000000  0   -1227136.056  -3004324.458  -6083283.972
10 0 59864  45342.000000  0   -1175616.054  -2159954.421  -6441498.541
10 0 59864  45462.000000  0   -1088629.213  -1279368.234  -6687295.102
10 0 59864  45582.000000  0    -967197.247   -378448.260  -6816444.116
10 0 59864  45702.000000  0    -813213.520    526614.465  -6826726.091
10 0 59864  45822.000000  0    -629413.507   1419604.121  -6717964.599
10 0 59864  45942.000000  0    -419327.537   2284562.932  -6492028.869
10 0 59864  46062.000000  0    -187216.203   3106069.313  -6152806.053
10 0 59864  46182.000000  0      62012.222   3869509.578  -5706142.851
10 0 59864  46302.000000  0     322900.588   4561337.113  -5159753.988
10 0 59864  46422.000000  0     589555.519   5169315.216  -4523100.715
10 0 59864  46542.000000  0     855772.948   5682740.969  -3807238.065
10 0 59864  46662.000000  0    1115174.240   6092643.420  -3024631.683
10 0 59864  46782.000000  0    1361349.812   6391952.071  -2188947.333
10 0 59864  46902.000000  0    1588007.427   6575631.755  -1314814.982
10 0 59864  47022.000000  0    1789121.681   6640779.165   -417571.076
10 0 59864  47142.000000  0    1959080.559   6586676.917    487015.886
10 0 59864  47262.000000  0    2092824.649   6414803.809   1383029.437
10 0 59864  47382.000000  0    2185976.286   6128801.626   2254693.049
10 0 59864  47502.000000  0    2234955.039   5734398.484   3086655.875
10 0 59864  47622.000000  0    2237076.929   5239291.529   3864270.597
10 0 59864  47742.000000  0    2190633.744   4652990.641   4573857.872
10 0 59864  47862.000000  0    2094950.928   3986625.839   5202951.433
10 0 59864  47982.000000  0    1950422.315   3252724.546   5740514.380
10 0 59864  48102.000000  0    1758523.274   2464969.698   6177128.239
10 0 59864  48222.000000  0    1521800.746   1637938.830   6505153.925
10 0 59864  48342.000000  0    1243840.183    786829.078   6718859.388
10 0 59864  48462.000000  0     929210.761    -72823.832   6814512.524
10 0 59864  48582.000000  0     583390.152   -925427.622   6790442.970
10 0 59864  48702.000000  0     212668.935  -1755616.513   6647070.742
10 0 59864  48822.000000  0    -175963.991  -2548528.033   6386899.186
10 0 59864  48942.000000  0    -574952.764  -3290070.130   6014473.321
10 0 59864  49062.000000  0    -976319.088  -3967172.326   5536302.898
10 0 59864  49182.000000  0   -1371818.570  -4568017.802   4960755.536
10 0 59864  49302.000000  0   -1753108.762  -5082256.272   4297919.125
10 0 59864  49422.000000  0   -2111924.413  -5501192.273   3559430.251
10 0 59864  49542.000000  0   -2440255.549  -5817941.628   2758270.939
10 0 59864  49662.000000  0   -2730523.914  -6027551.707   1908539.255
10 0 59864  49782.000000  0   -2975753.700  -6127084.794   1025197.860
10 0 59864  49902.000000  0   -3169732.493  -6115661.757    123804.428
10 0 59864  50022.000000  0   -3307158.197  -5994464.336   -779770.288
10 0 59864  50142.000000  0   -3383768.282  -5766695.742  -1669631.000
10 0 59864  50262.000000  0   -3396447.970  -5437500.007  -2530146.173
10 0 59864  50382.000000  0   -3343314.677  -5013842.715  -3346229.555
10 0 59864  50502.000000  0   -3223776.094  -4504356.319  -4103608.423
10 0 59864  50622.000000  0   -3038561.188  -3919155.688  -4789072.308
10 0 59864  50742.000000  0   -2789724.657  -3269629.354  -5390698.865
10 0 59864  50862.000000  0   -2480625.383  -2568211.069  -5898053.504
10 0 59864  50982.000000  0   -2115879.367  -1828137.378  -6302360.633
10 0 59864  51102.000000  0   -1701287.617  -1063195.744  -6596644.754
10 0 59864  51222.000000  0   -1243741.777   -287468.440  -6775838.840
10 0 59864  51342.000000  0    -751110.178    484922.476  -6836861.083
10 0 59864  51462.000000  0    -232104.590   1240065.632  -6778662.154
10 0 59864  51582.000000  0     303869.993   1964504.316  -6602240.869
10 0 59864  51702.000000  0     846880.380   2645470.309  -6310630.710
10 0 59864  51822.000000  0    1386645.949   3271106.087  -5908854.286
10 0 59864  51942.000000  0    1912728.874   3830670.409  -5403844.817
10 0 59864  52062.000000  0    2414732.690   4314724.083  -4804337.599
10 0 59864  52182.000000  0    2882506.046   4715294.433  -4120730.547
10 0 59864  52302.000000  0    3306347.403   5026014.392  -3364913.580
10 0 59864  52422.000000  0    3677207.084   5242232.421  -2550069.838
10 0 59864  52542.000000  0    3986882.396   5361090.306  -1690449.581
10 0 59864  52662.000000  0    4228199.530   5381566.250   -801121.636
10 0 59864  52782.000000  0    4395178.334   5304482.426    102294.280
10 0 59864  52902.000000  0    4483175.466   5132474.162   1003908.521
10 0 59864  53022.000000  0    4489000.329   4869921.980   1887848.327
10 0 59864  53142.000000  0    4411003.788   4522851.120   2738544.752
10 0 59864  53262.000000  0    4249135.556   4098796.280   3541017.332
10 0 59864  53382.000000  0    4004966.398   3606636.294   4281144.165
10 0 59864  53502.000000  0    3681679.038   3056404.361   4945912.958
10 0 59864  53622.000000  0    3284026.788   2459079.554   5523652.679
10 0 59864  53742.000000  0    2818257.386   1826361.601   6004235.431
10 0 59864  53862.000000  0    2292010.903   1170438.222   6379248.249
10 0 59864  53982.000000  0    1714190.470    503747.315   6642134.174
10 0 59864  54102.000000  0    1094808.593   -161258.578   6788300.498
10 0 59864  54222.000000  0     444812.024   -812343.897   6815195.615
10 0 59864  54342.000000  0    -224112.359  -1437715.672   6722350.792
10 0 59864  54462.000000  0    -899747.769  -2026236.783   6511387.297
10 0 59864  54582.000000  0   -1569570.018  -2567624.348   6185988.434
10 0 59864  54702.000000  0   -2220977.122  -3052629.189   5751838.796
10 0 59864  54822.000000  0   -2841525.784  -3473196.397   5216533.069
10 0 59864  54942.000000  0   -3419172.944  -3822603.969   4589450.284
10 0 59864  55062.000000  0   -3942514.087  -4095574.316   3881593.293
10 0 59864  55182.000000  0   -4401012.190  -4288357.521   3105398.509
10 0 59864  55302.000000  0   -4785214.047  -4398784.978   2274519.051
10 0 59864  55422.000000  0   -5086950.037  -4426292.103   1403582.742
10 0 59864  55542.000000  0   -5299510.502  -4371907.394    507929.122
10 0 59864  55662.000000  0   -5417794.620  -4238208.883   -396667.938
10 0 59864  55782.000000  0   -5438427.838  -4029248.986  -1294286.982
10 0 59864  55902.000000  0   -5359844.115  -3750448.893  -2169149.285
10 0 59864  56022.000000  0   -5182329.946  -3408464.966  -3005903.965
10 0 59864  56142.000000  0   -4908031.129  -3011032.898  -3789901.518
10 0 59864  56262.000000  0   -4540923.189  -2566793.180  -4507451.132
10 0 59864  56382.000000  0   -4086746.029  -2085102.510  -5146057.345
10 0 59864  56502.000000  0   -3552905.075  -1575835.967  -5694631.481
10 0 59864  56622.000000  0   -2948342.266  -1049184.155  -6143675.100
10 0 59864  56742.000000  0   -2283380.006   -515450.108  -6485433.498
10 0 59864  56862.000000  0   -1569540.659     15149.743  -6714018.086
10 0 59864  56982.000000  0    -819346.371    532676.635  -6825495.968
10 0 59864  57102.000000  0     -46103.385   1027650.423  -6817950.113
10 0 59864  57222.000000  0     736328.041   1491218.636  -6691508.293
10 0 59864  57342.000000  0    1513775.429   1915310.393  -6448343.512
10 0 59864  57462.000000  0    2272005.957   2292775.306  -6092640.977
10 0 59864  57582.000000  0    2996982.786   2617503.375  -5630533.633
10 0 59864  57702.000000  0    3675121.614   2884524.230  -5070005.631
10 0 59864  57822.000000  0    4293545.271   3090085.305  -4420767.012
10 0 59864  57942.000000  0    4840332.487   3231707.068  -3694096.254
10 0 59864  58062.000000  0    5304753.692   3308212.681  -2902652.391
10 0 59864  58182.000000  0    5677488.704   3319732.772  -2060260.974
10 0 59864  58302.000000  0    5950822.957   3267683.988  -1181674.443
10 0 59864  58422.000000  0    6118814.402   3154719.945   -282311.839
10 0 59864  58542.000000  0    6177427.807   2984656.695    622016.684
10 0 59864  58662.000000  0    6124631.998   2762372.812   1515395.087
10 0 59864  58782.000000  0    5960456.733   2493689.385   2382089.643
10 0 59864  58902.000000  0    5687008.861   2185230.840   3206835.229
10 0 59864  59022.000000  0    5308445.116   1844269.589   3975112.245
10 0 59864  59142.000000  0    4830903.254   1478559.910   4673407.582
10 0 59864  59262.000000  0    4262394.491   1096164.846   5289452.802
10 0 59864  59382.000000  0    3612661.801    705280.674   5812439.898
10 0 59864  59502.000000  0    2893002.324    314062.491   6233207.704
10 0 59864  59622.000000  0    2116063.774    -69543.481   6544394.775
99
